STARLINK-31750          
1 59552U 24074U   26068.09884508 -.00002253  00000+0 -72380-4 0  9994
2 59552  43.0053 346.8855 0001350 260.2183  99.8516 15.27567967105923
OTTER                   
1 62623U 25009Q   26068.72300813  .00012198  00000+0  45151-3 0  9990
2 62623  97.4065 151.3812 0003573 310.7710  49.3219 15.27809545 63722
